start=new Date('2022-08-10T00:00:00.000Z').valueOf();
sats=[{"SEMIMAJOR_AXIS":"6906.849","ARG_OF_PERICENTER":"70.0234","MEAN_MOTION":"15.12456356","MEAN_ELEMENT_THEORY":"SGP4","OBJECT_NAME":"STARLINK-2212","EPOCH":"2022-08-09T12:52:56.259264","NORAD_CAT_ID":"47779","TLE_LINE1":"1 47779U 21017BK  22221.53676226 -.00000505  00000-0 -11710-4 0  9997","TLE_LINE2":"2 47779  53.0563 310.8618 0001335  70.0234 290.0902 15.12456356 80775","LAUNCH_DATE":"2021-03-04","ELEMENT_SET_NO":"999","SITE":"AFETR","RCS_SIZE":"LARGE","REV_AT_EPOCH":"8077","INCLINATION":"53.0563","MEAN_MOTION_DOT":"-0.00000505","TIME_SYSTEM":"UTC","CLASSIFICATION_TYPE":"U","GP_ID":"209928530","COUNTRY_CODE":"US","EPHEMERIS_TYPE":"0","OBJECT_ID":"2021-017BK","FILE":"3533123","RA_OF_ASC_NODE":"310.8618","ECCENTRICITY":"0.00013350","CENTER_NAME":"EARTH","MEAN_MOTION_DDOT":"0.0000000000000","MEAN_ANOMALY":"290.0902","BSTAR":"-0.00001171000000","PERIAPSIS":"527.792","REF_FRAME":"TEME","APOAPSIS":"529.636","DECAY_DATE":null,"OBJECT_TYPE":"PAYLOAD","PERIOD":"95.209"},{"APOAPSIS":"547.889","REF_FRAME":"TEME","PERIAPSIS":"546.522","BSTAR":"0.00002715800000","MEAN_ANOMALY":"261.7151","MEAN_MOTION_DDOT":"0.0000000000000","PERIOD":"95.592","OBJECT_TYPE":"PAYLOAD","DECAY_DATE":null,"FILE":"3533123","COUNTRY_CODE":"US","EPHEMERIS_TYPE":"0","OBJECT_ID":"2021-017BL","CLASSIFICATION_TYPE":"U","GP_ID":"209929282","CENTER_NAME":"EARTH","ECCENTRICITY":"0.00009870","RA_OF_ASC_NODE":"323.4610","REV_AT_EPOCH":"8063","INCLINATION":"53.0558","RCS_SIZE":"LARGE","SITE":"AFETR","TIME_SYSTEM":"UTC","MEAN_MOTION_DOT":"0.00000123","OBJECT_NAME":"STARLINK-2213","MEAN_MOTION":"15.06402527","MEAN_ELEMENT_THEORY":"SGP4","ARG_OF_PERICENTER":"98.3950","SEMIMAJOR_AXIS":"6925.341","LAUNCH_DATE":"2021-03-04","ELEMENT_SET_NO":"999","TLE_LINE2":"2 47780  53.0558 323.4610 0000987  98.3950 261.7151 15.06402527 80633","NORAD_CAT_ID":"47780","TLE_LINE1":"1 47780U 21017BL  22221.68625101  .00000123  00000-0  27158-4 0  9998","EPOCH":"2022-08-09T16:28:12.087264"},{"RCS_SIZE":"LARGE","SITE":"AFETR","INCLINATION":"53.0540","REV_AT_EPOCH":"8059","TIME_SYSTEM":"UTC","MEAN_MOTION_DOT":"0.00002532","SEMIMAJOR_AXIS":"6925.333","OBJECT_NAME":"STARLINK-2223","MEAN_MOTION":"15.06405134","MEAN_ELEMENT_THEORY":"SGP4","ARG_OF_PERICENTER":"100.5332","NORAD_CAT_ID":"47781","TLE_LINE1":"1 47781U 21017BM  22221.71942175  .00002532  00000-0  18879-3 0  9991","EPOCH":"2022-08-09T17:15:58.039200","LAUNCH_DATE":"2021-03-04","ELEMENT_SET_NO":"999","TLE_LINE2":"2 47781  53.0540 323.3142 0001262 100.5332 259.5800 15.06405134 80599","BSTAR":"0.00018879000000","MEAN_ANOMALY":"259.5800","MEAN_MOTION_DDOT":"0.0000000000000","APOAPSIS":"548.072","REF_FRAME":"TEME","PERIAPSIS":"546.324","OBJECT_TYPE":"PAYLOAD","DECAY_DATE":null,"PERIOD":"95.592","COUNTRY_CODE":"US","OBJECT_ID":"2021-017BM","EPHEMERIS_TYPE":"0","GP_ID":"209929527","CLASSIFICATION_TYPE":"U","FILE":"3533123","RA_OF_ASC_NODE":"323.3142","CENTER_NAME":"EARTH","ECCENTRICITY":"0.00012620"},{"GP_ID":"209897562","CLASSIFICATION_TYPE":"U","EPHEMERIS_TYPE":"0","COUNTRY_CODE":"US","OBJECT_ID":"2021-018A","FILE":"3532882","RA_OF_ASC_NODE":"4.7279","CENTER_NAME":"EARTH","ECCENTRICITY":"0.00017170","MEAN_MOTION_DDOT":"0.0000000000000","BSTAR":"0.00031487000000","MEAN_ANOMALY":"263.8389","PERIAPSIS":"545.972","APOAPSIS":"548.350","REF_FRAME":"TEME","DECAY_DATE":null,"OBJECT_TYPE":"PAYLOAD","PERIOD":"95.591","SEMIMAJOR_AXIS":"6925.296","ARG_OF_PERICENTER":"96.2795","OBJECT_NAME":"STARLINK-2257","MEAN_ELEMENT_THEORY":"SGP4","MEAN_MOTION":"15.06417015","TLE_LINE1":"1 47787U 21018A   22221.40611631  .00004414  00000-0  31487-3 0  9995","NORAD_CAT_ID":"47787","EPOCH":"2022-08-09T09:44:48.449184","ELEMENT_SET_NO":"999","LAUNCH_DATE":"2021-03-11","TLE_LINE2":"2 47787  53.0546   4.7279 0001717  96.2795 263.8389 15.06417015 79400","SITE":"AFETR","RCS_SIZE":"LARGE","INCLINATION":"53.0546","REV_AT_EPOCH":"7940","MEAN_MOTION_DOT":"0.00004414","TIME_SYSTEM":"UTC"},{"MEAN_MOTION_DDOT":"0.0000000000000","BSTAR":"-0.00003289700000","MEAN_ANOMALY":"256.6460","PERIAPSIS":"546.321","APOAPSIS":"548.107","REF_FRAME":"TEME","DECAY_DATE":null,"OBJECT_TYPE":"PAYLOAD","PERIOD":"95.592","CLASSIFICATION_TYPE":"U","GP_ID":"209928030","OBJECT_ID":"2021-018B","COUNTRY_CODE":"US","EPHEMERIS_TYPE":"0","FILE":"3533123","RA_OF_ASC_NODE":"339.0904","CENTER_NAME":"EARTH","ECCENTRICITY":"0.00012890","SITE":"AFETR","RCS_SIZE":"LARGE","INCLINATION":"53.0563","REV_AT_EPOCH":"7979","MEAN_MOTION_DOT":"-0.00000771","TIME_SYSTEM":"UTC","SEMIMAJOR_AXIS":"6925.349","ARG_OF_PERICENTER":"103.4673","OBJECT_NAME":"STARLINK-2314","MEAN_ELEMENT_THEORY":"SGP4","MEAN_MOTION":"15.06399901","TLE_LINE1":"1 47788U 21018B   22221.55032975 -.00000771  00000-0 -32897-4 0  9991","NORAD_CAT_ID":"47788","EPOCH":"2022-08-09T13:12:28.490400","LAUNCH_DATE":"2021-03-11","ELEMENT_SET_NO":"999","TLE_LINE2":"2 47788  53.0563 339.0904 0001289 103.4673 256.6460 15.06399901 79794"},{"RCS_SIZE":"LARGE","SITE":"AFETR","REV_AT_EPOCH":"7973","INCLINATION":"53.0553","TIME_SYSTEM":"UTC","MEAN_MOTION_DOT":"0.00000553","SEMIMAJOR_AXIS":"6925.342","MEAN_MOTION":"15.06402183","MEAN_ELEMENT_THEORY":"SGP4","OBJECT_NAME":"STARLINK-2315","ARG_OF_PERICENTER":"117.6571","EPOCH":"2022-08-09T15:59:00.615840","NORAD_CAT_ID":"47789","TLE_LINE1":"1 47789U 21018C   22221.66597935  .00000553  00000-0  56039-4 0  9996","TLE_LINE2":"2 47789  53.0553 343.5739 0001378 117.6571 242.4558 15.06402183 79735","LAUNCH_DATE":"2021-03-11","ELEMENT_SET_NO":"999","MEAN_ANOMALY":"242.4558","BSTAR":"0.00005603900000","MEAN_MOTION_DDOT":"0.0000000000000","REF_FRAME":"TEME","APOAPSIS":"548.161","PERIAPSIS":"546.253","OBJECT_TYPE":"PAYLOAD","DECAY_DATE":null,"PERIOD":"95.592","OBJECT_ID":"2021-018C","COUNTRY_CODE":"US","EPHEMERIS_TYPE":"0","CLASSIFICATION_TYPE":"U","GP_ID":"209928782","FILE":"3533123","RA_OF_ASC_NODE":"343.5739","ECCENTRICITY":"0.00013780","CENTER_NAME":"EARTH"},{"SEMIMAJOR_AXIS":"6925.351","ARG_OF_PERICENTER":"86.8879","MEAN_ELEMENT_THEORY":"SGP4","MEAN_MOTION":"15.06399333","OBJECT_NAME":"STARLINK-2319","EPOCH":"2022-08-09T18:34:15.631392","NORAD_CAT_ID":"47790","TLE_LINE1":"1 47790U 21018D   22221.77379203 -.00001016  00000-0 -49300-4 0  9996","TLE_LINE2":"2 47790  53.0543 333.0890 0001343  86.8879 273.2264 15.06399333 79893","ELEMENT_SET_NO":"999","LAUNCH_DATE":"2021-03-11","SITE":"AFETR","RCS_SIZE":"LARGE","INCLINATION":"53.0543","REV_AT_EPOCH":"7989","MEAN_MOTION_DOT":"-0.00001016","TIME_SYSTEM":"UTC","CLASSIFICATION_TYPE":"U","GP_ID":"209929027","OBJECT_ID":"2021-018D","COUNTRY_CODE":"US","EPHEMERIS_TYPE":"0","FILE":"3533123","RA_OF_ASC_NODE":"333.0890","ECCENTRICITY":"0.00013430","CENTER_NAME":"EARTH","MEAN_MOTION_DDOT":"0.0000000000000","MEAN_ANOMALY":"273.2264","BSTAR":"-0.00004930000000","PERIAPSIS":"546.286","REF_FRAME":"TEME","APOAPSIS":"548.146","DECAY_DATE":null,"OBJECT_TYPE":"PAYLOAD","PERIOD":"95.592"},{"OBJECT_TYPE":"PAYLOAD","DECAY_DATE":null,"PERIOD":"95.592","MEAN_ANOMALY":"270.5608","BSTAR":"0.00011096000000","MEAN_MOTION_DDOT":"0.0000000000000","REF_FRAME":"TEME","APOAPSIS":"548.056","PERIAPSIS":"546.404","RA_OF_ASC_NODE":"4.1785","ECCENTRICITY":"0.00011930","CENTER_NAME":"EARTH","OBJECT_ID":"2021-018E","COUNTRY_CODE":"US","EPHEMERIS_TYPE":"0","CLASSIFICATION_TYPE":"U","GP_ID":"209898062","FILE":"3532882","TIME_SYSTEM":"UTC","MEAN_MOTION_DOT":"0.00001372","RCS_SIZE":"LARGE","SITE":"AFETR","REV_AT_EPOCH":"7943","INCLINATION":"53.0540","EPOCH":"2022-08-09T12:39:59.146560","NORAD_CAT_ID":"47791","TLE_LINE1":"1 47791U 21018E   22221.52776790  .00001372  00000-0  11096-3 0  9995","TLE_LINE2":"2 47791  53.0540   4.1785 0001193  89.5518 270.5608 15.06394655 79437","ELEMENT_SET_NO":"999","LAUNCH_DATE":"2021-03-11","SEMIMAJOR_AXIS":"6925.365","MEAN_MOTION":"15.06394655","MEAN_ELEMENT_THEORY":"SGP4","OBJECT_NAME":"STARLINK-2322","ARG_OF_PERICENTER":"89.5518"},{"PERIOD":"95.592","DECAY_DATE":null,"OBJECT_TYPE":"PAYLOAD","PERIAPSIS":"546.394","APOAPSIS":"548.042","REF_FRAME":"TEME","MEAN_MOTION_DDOT":"0.0000000000000","BSTAR":"0.00001497800000","MEAN_ANOMALY":"282.9650","CENTER_NAME":"EARTH","ECCENTRICITY":"0.00011900","RA_OF_ASC_NODE":"344.1351","FILE":"3532983","CLASSIFICATION_TYPE":"U","GP_ID":"209903793","OBJECT_ID":"2021-018F","COUNTRY_CODE":"US","EPHEMERIS_TYPE":"0","MEAN_MOTION_DOT":"-0.00000058","TIME_SYSTEM":"UTC","INCLINATION":"53.0560","REV_AT_EPOCH":"7936","SITE":"AFETR","RCS_SIZE":"LARGE","LAUNCH_DATE":"2021-03-11","ELEMENT_SET_NO":"999","TLE_LINE2":"2 47792  53.0560 344.1351 0001190  77.1472 282.9650 15.06398522 79368","TLE_LINE1":"1 47792U 21018F   22221.54065855 -.00000058  00000-0  14978-4 0  9995","NORAD_CAT_ID":"47792","EPOCH":"2022-08-09T12:58:32.898720","ARG_OF_PERICENTER":"77.1472","OBJECT_NAME":"STARLINK-2334","MEAN_ELEMENT_THEORY":"SGP4","MEAN_MOTION":"15.06398522","SEMIMAJOR_AXIS":"6925.353"},{"TIME_SYSTEM":"UTC","MEAN_MOTION_DOT":"-0.00000692","REV_AT_EPOCH":"7974","INCLINATION":"53.0555","RCS_SIZE":"LARGE","SITE":"AFETR","TLE_LINE2":"2 47793  53.0555 342.8824 0001453  85.5445 274.5710 15.06396779 79746","LAUNCH_DATE":"2021-03-11","ELEMENT_SET_NO":"999","EPOCH":"2022-08-09T19:41:56.522112","TLE_LINE1":"1 47793U 21018G   22221.82079308 -.00000692  00000-0 -27549-4 0  9998","NORAD_CAT_ID":"47793","MEAN_ELEMENT_THEORY":"SGP4","MEAN_MOTION":"15.06396779","OBJECT_NAME":"STARLINK-2338","ARG_OF_PERICENTER":"85.5445","SEMIMAJOR_AXIS":"6925.358","PERIOD":"95.592","OBJECT_TYPE":"PAYLOAD","DECAY_DATE":null,"REF_FRAME":"TEME","APOAPSIS":"548.230","PERIAPSIS":"546.217","MEAN_ANOMALY":"274.5710","BSTAR":"-0.00002754900000","MEAN_MOTION_DDOT":"0.0000000000000","ECCENTRICITY":"0.00014530","CENTER_NAME":"EARTH","RA_OF_ASC_NODE":"342.8824","FILE":"3533123","EPHEMERIS_TYPE":"0","COUNTRY_CODE":"US","OBJECT_ID":"2021-018G","GP_ID":"209929283","CLASSIFICATION_TYPE":"U"}];
